[{"COMMENT":"GENERATED VIA SPACETRACK.ORG API","ORIGINATOR":"18 SPCS","NORAD_CAT_ID":"43476","OBJECT_NAME":"GRACE-FO 1","OBJECT_TYPE":"PAYLOAD","CLASSIFICATION_TYPE":"U","INTLDES":"18047A","EPOCH":"2024-01-03 13:32:35","EPOCH_MICROSECONDS":"598624","MEAN_MOTION":"15.2775588","ECCENTRICITY":"0.0013214","INCLINATION":"88.9837","RA_OF_ASC_NODE":"321.8675","ARG_OF_PERICENTER":"0.6212","MEAN_ANOMALY":"359.5052","EPHEMERIS_TYPE":"0","ELEMENT_SET_NO":"999","REV_AT_EPOCH":"31257","BSTAR":"0.0001425","MEAN_MOTION_DOT":"0.00003899","MEAN_MOTION_DDOT":"0","FILE":"4152560","TLE_LINE0":"0 GRACE-FO 1","TLE_LINE1":"1 43476U 18047A   24003.56430091  .00003899  00000-0  14250-3 0  9995","TLE_LINE2":"2 43476  88.9837 321.8675 0013214   0.6212 359.5052 15.27755880312578","OBJECT_ID":"2018-047A","OBJECT_NUMBER":"43476","SEMIMAJOR_AXIS":"6860.659","PERIOD":"94.256","APOGEE":"491.590","PERIGEE":"473.459","DECAYED":"0"},{"COMMENT":"GENERATED VIA SPACETRACK.ORG API","ORIGINATOR":"18 SPCS","NORAD_CAT_ID":"43476","OBJECT_NAME":"GRACE-FO 1","OBJECT_TYPE":"PAYLOAD","CLASSIFICATION_TYPE":"U","INTLDES":"18047A","EPOCH":"2024-01-03 19:49:52","EPOCH_MICROSECONDS":"808160","MEAN_MOTION":"15.27757996","ECCENTRICITY":"0.0013162","INCLINATION":"88.9837","RA_OF_ASC_NODE":"321.8317","ARG_OF_PERICENTER":"359.6159","MEAN_ANOMALY":"0.5078","EPHEMERIS_TYPE":"0","ELEMENT_SET_NO":"999","REV_AT_EPOCH":"31261","BSTAR":"0.00014328","MEAN_MOTION_DOT":"0.0000392","MEAN_MOTION_DDOT":"0","FILE":"4152601","TLE_LINE0":"0 GRACE-FO 1","TLE_LINE1":"1 43476U 18047A   24003.82630565  .00003920  00000-0  14328-3 0  9993","TLE_LINE2":"2 43476  88.9837 321.8317 0013162 359.6159   0.5078 15.27757996312616","OBJECT_ID":"2018-047A","OBJECT_NUMBER":"43476","SEMIMAJOR_AXIS":"6860.653","PERIOD":"94.256","APOGEE":"491.548","PERIGEE":"473.488","DECAYED":"0"},{"COMMENT":"GENERATED VIA SPACETRACK.ORG API","ORIGINATOR":"18 SPCS","NORAD_CAT_ID":"43476","OBJECT_NAME":"GRACE-FO 1","OBJECT_TYPE":"PAYLOAD","CLASSIFICATION_TYPE":"U","INTLDES":"18047A","EPOCH":"2024-01-03 21:24:12","EPOCH_MICROSECONDS":"112704","MEAN_MOTION":"15.27758776","ECCENTRICITY":"0.0013153","INCLINATION":"88.9837","RA_OF_ASC_NODE":"321.8227","ARG_OF_PERICENTER":"359.3596","MEAN_ANOMALY":"0.7634","EPHEMERIS_TYPE":"0","ELEMENT_SET_NO":"999","REV_AT_EPOCH":"31262","BSTAR":"0.00014897","MEAN_MOTION_DOT":"0.00004075","MEAN_MOTION_DDOT":"0","FILE":"4152812","TLE_LINE0":"0 GRACE-FO 1","TLE_LINE1":"1 43476U 18047A   24003.89180686  .00004075  00000-0  14897-3 0  9997","TLE_LINE2":"2 43476  88.9837 321.8227 0013153 359.3596   0.7634 15.27758776312626","OBJECT_ID":"2018-047A","OBJECT_NUMBER":"43476","SEMIMAJOR_AXIS":"6860.651","PERIOD":"94.256","APOGEE":"491.540","PERIGEE":"473.492","DECAYED":"0"},{"COMMENT":"GENERATED VIA SPACETRACK.ORG API","ORIGINATOR":"18 SPCS","NORAD_CAT_ID":"43476","OBJECT_NAME":"GRACE-FO 1","OBJECT_TYPE":"PAYLOAD","CLASSIFICATION_TYPE":"U","INTLDES":"18047A","EPOCH":"2024-01-04 13:07:24","EPOCH_MICROSECONDS":"974976","MEAN_MOTION":"15.27763385","ECCENTRICITY":"0.0013022","INCLINATION":"88.9836","RA_OF_ASC_NODE":"321.733","ARG_OF_PERICENTER":"356.8469","MEAN_ANOMALY":"3.2696","EPHEMERIS_TYPE":"0","ELEMENT_SET_NO":"999","REV_AT_EPOCH":"31272","BSTAR":"0.00014081","MEAN_MOTION_DOT":"0.00003854","MEAN_MOTION_DDOT":"0","FILE":"4153368","TLE_LINE0":"0 GRACE-FO 1","TLE_LINE1":"1 43476U 18047A   24004.54681684  .00003854  00000-0  14081-3 0  9993","TLE_LINE2":"2 43476  88.9836 321.7330 0013022 356.8469   3.2696 15.27763385312724","OBJECT_ID":"2018-047A","OBJECT_NUMBER":"43476","SEMIMAJOR_AXIS":"6860.637","PERIOD":"94.255","APOGEE":"491.436","PERIGEE":"473.568","DECAYED":"0"},{"COMMENT":"GENERATED VIA SPACETRACK.ORG API","ORIGINATOR":"18 SPCS","NORAD_CAT_ID":"43476","OBJECT_NAME":"GRACE-FO 1","OBJECT_TYPE":"PAYLOAD","CLASSIFICATION_TYPE":"U","INTLDES":"18047A","EPOCH":"2024-01-04 20:59:01","EPOCH_MICROSECONDS":"330944","MEAN_MOTION":"15.27766094","ECCENTRICITY":"0.001296","INCLINATION":"88.9836","RA_OF_ASC_NODE":"321.6882","ARG_OF_PERICENTER":"355.5573","MEAN_ANOMALY":"4.5559","EPHEMERIS_TYPE":"0","ELEMENT_SET_NO":"999","REV_AT_EPOCH":"31277","BSTAR":"0.00013939","MEAN_MOTION_DOT":"0.00003815","MEAN_MOTION_DDOT":"0","FILE":"4153399","TLE_LINE0":"0 GRACE-FO 1","TLE_LINE1":"1 43476U 18047A   24004.87432096  .00003815  00000-0  13939-3 0  9998","TLE_LINE2":"2 43476  88.9836 321.6882 0012960 355.5573   4.5559 15.27766094312774","OBJECT_ID":"2018-047A","OBJECT_NUMBER":"43476","SEMIMAJOR_AXIS":"6860.629","PERIOD":"94.255","APOGEE":"491.385","PERIGEE":"473.603","DECAYED":"0"},{"COMMENT":"GENERATED VIA SPACETRACK.ORG API","ORIGINATOR":"18 SPCS","NORAD_CAT_ID":"43476","OBJECT_NAME":"GRACE-FO 1","OBJECT_TYPE":"PAYLOAD","CLASSIFICATION_TYPE":"U","INTLDES":"18047A","EPOCH":"2024-01-05 14:16:33","EPOCH_MICROSECONDS":"159936","MEAN_MOTION":"15.27771255","ECCENTRICITY":"0.0012783","INCLINATION":"88.9835","RA_OF_ASC_NODE":"321.5898","ARG_OF_PERICENTER":"352.6936","MEAN_ANOMALY":"7.4125","EPHEMERIS_TYPE":"0","ELEMENT_SET_NO":"999","REV_AT_EPOCH":"31288","BSTAR":"0.00013244","MEAN_MOTION_DOT":"0.00003627","MEAN_MOTION_DDOT":"0","FILE":"4154254","TLE_LINE0":"0 GRACE-FO 1","TLE_LINE1":"1 43476U 18047A   24005.59482824  .00003627  00000-0  13244-3 0  9992","TLE_LINE2":"2 43476  88.9835 321.5898 0012783 352.6936   7.4125 15.27771255312881","OBJECT_ID":"2018-047A","OBJECT_NUMBER":"43476","SEMIMAJOR_AXIS":"6860.613","PERIOD":"94.255","APOGEE":"491.248","PERIGEE":"473.709","DECAYED":"0"},{"COMMENT":"GENERATED VIA SPACETRACK.ORG API","ORIGINATOR":"18 SPCS","NORAD_CAT_ID":"43476","OBJECT_NAME":"GRACE-FO 1","OBJECT_TYPE":"PAYLOAD","CLASSIFICATION_TYPE":"U","INTLDES":"18047A","EPOCH":"2024-01-05 22:08:09","EPOCH_MICROSECONDS":"361248","MEAN_MOTION":"15.27774059","ECCENTRICITY":"0.0012712","INCLINATION":"88.9834","RA_OF_ASC_NODE":"321.545","ARG_OF_PERICENTER":"351.392","MEAN_ANOMALY":"8.7109","EPHEMERIS_TYPE":"0","ELEMENT_SET_NO":"999","REV_AT_EPOCH":"31293","BSTAR":"0.00013111","MEAN_MOTION_DOT":"0.00003591","MEAN_MOTION_DDOT":"0","FILE":"4154502","TLE_LINE0":"0 GRACE-FO 1","TLE_LINE1":"1 43476U 18047A   24005.92233057  .00003591  00000-0  13111-3 0  9994","TLE_LINE2":"2 43476  88.9834 321.5450 0012712 351.3920   8.7109 15.27774059312932","OBJECT_ID":"2018-047A","OBJECT_NUMBER":"43476","SEMIMAJOR_AXIS":"6860.605","PERIOD":"94.255","APOGEE":"491.191","PERIGEE":"473.749","DECAYED":"0"},{"COMMENT":"GENERATED VIA SPACETRACK.ORG API","ORIGINATOR":"18 SPCS","NORAD_CAT_ID":"43476","OBJECT_NAME":"GRACE-FO 1","OBJECT_TYPE":"PAYLOAD","CLASSIFICATION_TYPE":"U","INTLDES":"18047A","EPOCH":"2024-01-06 02:51:07","EPOCH_MICROSECONDS":"63200","MEAN_MOTION":"15.27775647","ECCENTRICITY":"0.0012658","INCLINATION":"88.9835","RA_OF_ASC_NODE":"321.518","ARG_OF_PERICENTER":"350.5861","MEAN_ANOMALY":"9.515","EPHEMERIS_TYPE":"0","ELEMENT_SET_NO":"999","REV_AT_EPOCH":"31296","BSTAR":"0.00013528","MEAN_MOTION_DOT":"0.00003704","MEAN_MOTION_DDOT":"0","FILE":"4154521","TLE_LINE0":"0 GRACE-FO 1","TLE_LINE1":"1 43476U 18047A   24006.11883175  .00003704  00000-0  13528-3 0  9996","TLE_LINE2":"2 43476  88.9835 321.5180 0012658 350.5861   9.5150 15.27775647312969","OBJECT_ID":"2018-047A","OBJECT_NUMBER":"43476","SEMIMAJOR_AXIS":"6860.600","PERIOD":"94.255","APOGEE":"491.149","PERIGEE":"473.781","DECAYED":"0"},{"COMMENT":"GENERATED VIA SPACETRACK.ORG API","ORIGINATOR":"18 SPCS","NORAD_CAT_ID":"43476","OBJECT_NAME":"GRACE-FO 1","OBJECT_TYPE":"PAYLOAD","CLASSIFICATION_TYPE":"U","INTLDES":"18047A","EPOCH":"2024-01-06 12:17:02","EPOCH_MICROSECONDS":"437728","MEAN_MOTION":"15.27778371","ECCENTRICITY":"0.0012568","INCLINATION":"88.9834","RA_OF_ASC_NODE":"321.4643","ARG_OF_PERICENTER":"349.0223","MEAN_ANOMALY":"11.075","EPHEMERIS_TYPE":"0","ELEMENT_SET_NO":"999","REV_AT_EPOCH":"31302","BSTAR":"0.00013049","MEAN_MOTION_DOT":"0.00003575","MEAN_MOTION_DDOT":"0","FILE":"4155067","TLE_LINE0":"0 GRACE-FO 1","TLE_LINE1":"1 43476U 18047A   24006.51183377  .00003575  00000-0  13049-3 0  9991","TLE_LINE2":"2 43476  88.9834 321.4643 0012568 349.0223  11.0750 15.27778371313025","OBJECT_ID":"2018-047A","OBJECT_NUMBER":"43476","SEMIMAJOR_AXIS":"6860.592","PERIOD":"94.255","APOGEE":"491.080","PERIGEE":"473.835","DECAYED":"0"},{"COMMENT":"GENERATED VIA SPACETRACK.ORG API","ORIGINATOR":"18 SPCS","NORAD_CAT_ID":"43476","OBJECT_NAME":"GRACE-FO 1","OBJECT_TYPE":"PAYLOAD","CLASSIFICATION_TYPE":"U","INTLDES":"18047A","EPOCH":"2024-01-06 20:08:38","EPOCH_MICROSECONDS":"537952","MEAN_MOTION":"15.27780793","ECCENTRICITY":"0.0012502","INCLINATION":"88.9835","RA_OF_ASC_NODE":"321.4195","ARG_OF_PERICENTER":"347.7243","MEAN_ANOMALY":"12.37","EPHEMERIS_TYPE":"0","ELEMENT_SET_NO":"999","REV_AT_EPOCH":"31307","BSTAR":"0.00012884","MEAN_MOTION_DOT":"0.0000353","MEAN_MOTION_DDOT":"0","FILE":"4155325","TLE_LINE0":"0 GRACE-FO 1","TLE_LINE1":"1 43476U 18047A   24006.83933493  .00003530  00000-0  12884-3 0  9995","TLE_LINE2":"2 43476  88.9835 321.4195 0012502 347.7243  12.3700 15.27780793313078","OBJECT_ID":"2018-047A","OBJECT_NUMBER":"43476","SEMIMAJOR_AXIS":"6860.585","PERIOD":"94.254","APOGEE":"491.027","PERIGEE":"473.873","DECAYED":"0"}]